OBJECT_NAME,OBJECT_ID,EPOCH,MEAN_MOTION,ECCENTRICITY,INCLINATION,RA_OF_ASC_NODE,ARG_OF_PERICENTER,MEAN_ANOMALY,EPHEMERIS_TYPE,CLASSIFICATION_TYPE,NORAD_CAT_ID,ELEMENT_SET_NO,REV_AT_EPOCH,BSTAR,MEAN_MOTION_DOT,MEAN_MOTION_DDOT
GSAT0224 (GALILEO 28),2021-116B,2024-01-20T09:13:30.417312,1.70475670,.0002626,57.2944,5.3722,263.2842,268.6578,0,U,49810,999,1322,0,-.89E-6,0
COSMOS 2557,2022-075A,2024-01-20T04:23:35.117376,2.13101765,.0013838,64.7234,345.2795,283.8346,76.0065,0,U,52984,999,1198,0,-.8E-6,0
COSMOS 2559,2022-130A,2024-01-20T03:00:41.334624,2.13101070,.00069,64.6948,345.4044,239.1991,120.7284,0,U,54031,999,995,0,-.8E-6,0
COSMOS 2564,2022-161A,2024-01-19T20:21:55.299744,2.13102113,.0007197,64.7469,221.9620,206.2548,153.7598,0,U,54377,999,889,0,.111E-5,0
NAVSTAR 82 (USA 343),2023-009A,2024-01-20T11:23:08.721600,2.00574727,.0004898,55.0880,182.9965,101.8911,268.5335,0,U,55268,999,762,0,.76E-6,0
BEIDOU-3 G4,2023-066A,2024-01-20T15:15:51.369408,1.00271435,.0002815,2.4939,288.2809,232.2140,348.0587,0,U,56564,999,258,0,-.103E-5,0
IRNSS-1J (NVS-01),2023-076A,2024-01-20T12:50:42.624384,1.00269877,.0007559,4.3801,269.3182,0.5727,171.7522,0,U,56759,999,230,0,-.326E-5,0
COSMOS 2569,2023-114A,2024-01-20T08:04:10.618464,2.13104246,.0011097,64.8539,102.3639,291.4024,68.5120,0,U,57517,999,353,0,-.5E-6,0
BEIDOU-3 M25,2023-207A,2024-01-19T12:00:00.000000,1.86231622,.0003594,55.0020,92.1740,252.7320,285.8580,0,U,58654,999,45,0,-.68E-6,0
BEIDOU-3 M26,2023-207B,2024-01-05T20:19:36.281280,1.85607573,.0316732,54.6471,92.7627,68.9835,87.0455,0,U,58655,999,19,0,-.37E-6,0
